{"type": "FeatureCollection", "features": [{"type": "Feature", "properties": {"district": "Kanungu", "population": 231700}, "geometry": {"type": "Polygon", "coordinates": [[[29.6, -0.55], [29.82, -0.55], [30.0, -0.62], [30.12, -0.75], [30.15, -0.9], [30.0, -1.02], [29.8, -1.04], [29.62, -0.98], [29.52, -0.8], [29.55, -0.65], [29.6, -0.55]]]}}, {"type": "Feature", "properties": {"district": "Rukungiri", "population": 289800}, "geometry": {"type": "Polygon", "coordinates": [[[29.88, -0.58], [30.1, -0.58], [30.26, -0.7], [30.28, -0.84], [30.18, -0.98], [29.98, -1.02], [29.8, -0.96], [29.72, -0.82], [29.78, -0.68], [29.88, -0.58]]]}}, {"type": "Feature", "properties": {"district": "Rubanda", "population": 179900}, "geometry": {"type": "Polygon", "coordinates": [[[29.65, -0.98], [29.85, -0.95], [30.05, -1.0], [30.18, -1.1], [30.12, -1.26], [29.92, -1.3], [29.7, -1.24], [29.58, -1.12], [29.62, -1.02], [29.65, -0.98]]]}}]}